STARLINK-1643           
1 46136U 20057V   20253.25001157 -.01197820  00000-0 -14435-1 0  9995
2 46136  53.0016 333.9173 0001446  43.1186 137.1476 15.62929345  1774
STARLINK-1586           
1 46137U 20057W   20253.50001157 -.00002384  00000-0 -17290-4 0  9998
2 46137  52.9996 332.3781 0001340  47.8148 239.6698 15.66315341  4125
STARLINK-1590           
1 46138U 20057X   20253.50001157 -.00000672  00000-0 -14988-5 0  9999
2 46138  52.9986 332.7589 0001610  60.5476  40.8762 15.62753081  4128
STARLINK-1592           
1 46139U 20057Y   20253.50001157 -.00035836  00000-0 -38675-3 0  9997
2 46139  53.0008 332.7298 0001368  56.5092  56.3257 15.62785704  4120
STARLINK-1594           
1 46140U 20057Z   20253.50001157 -.00011225  00000-0 -11085-3 0  9991
2 46140  52.9990 332.7032 0004949 293.3802 194.8672 15.64058858  4128
STARLINK-1596           
1 46141U 20057AA  20253.50001157 -.00107778  00000-0 -11825-2 0  9992
2 46141  52.9991 332.7194 0004910 282.7106 197.2280 15.62827508  4122
STARLINK-1597           
1 46142U 20057AB  20253.25001157 -.01138013  00000-0 -15179-1 0  9997
2 46142  53.0000 333.9853 0001276  28.4859 117.8893 15.60190779  1770
STARLINK-1599           
1 46143U 20057AC  20253.25001157  .00022323  00000-0  21701-3 0  9991
2 46143  52.9992 333.5944 0001111  51.4887 270.1335 15.66243954  1775
